STARLINK-31028          
1 58516U 23191J   26068.47956789  .00003432  00000+0  13747-3 0  9994
2 58516  43.0013 104.2320 0001211 272.5081  87.5632 15.26762907125442
FLOCK 4G-26             
1 62633U 25009AA  26068.80489479  .00011283  00000+0  42469-3 0  9999
2 62633  97.4054 151.3913 0001988 299.1273  60.9767 15.27281631 63733
